IRIDIUM 39              
1 25042U 97069D   25151.21230816  .00000559  00000+0  14119-3 0  9998
2 25042  86.3943 218.4040 0017994  11.4774 348.6836 14.49201569446767
IRIDIUM 38              
1 25043U 97069E   25151.19143918  .00000463  00000+0  14641-3 0  9996
2 25043  86.3972 240.3010 0003691 121.7237 238.4321 14.38104221443777
IRIDIUM 42              
1 25077U 97077A   25150.75878208  .00000402  00000+0  13074-3 0  9992
2 25077  86.3972 246.6319 0002532 111.9276 248.2190 14.36338864438690
IRIDIUM 44              
1 25078U 97077B   25151.45503521  .00000412  00000+0  12415-3 0  9993
2 25078  86.3983 228.3088 0004191  89.5569 270.6111 14.40229481441326
IRIDIUM 45              
1 25104U 97082A   25150.76619596  .00022639  00000+0  81623-3 0  9994
2 25104  86.3591  56.3502 0120116  38.1852 322.7824 15.21735866449396
IRIDIUM 24              
1 25105U 97082B   25151.51907384  .00000512  00000+0  14967-3 0  9997
2 25105  86.3898  87.3706 0013012 125.8703 234.3707 14.42083546441069
IRIDIUM 51              
1 25262U 98018A   25151.19390900  .00033132  00000+0  75831-3 0  9996
2 25262  86.3845  64.2417 0085687 317.4241  42.0388 15.38772495444630
IRIDIUM 57              
1 25273U 98019B   25151.23793516  .00000333  00000+0  10825-3 0  9993
2 25273  86.3965 152.3623 0002346  91.2593 268.8872 14.35882395422562
